{
  "type": "FeatureCollection",
  "features": [
    {
      "type": "Feature",
      "properties": {
        "norad_id": 57400,
        "name": "TIANMU-1 08",
        "group": "weather",
        "lat": 22.541902646618315,
        "lon": -149.16377072326796,
        "alt_km": 478.6413964124649,
        "timestamp": "2025-12-03T22:42:32.302668+00:00",
        "meta_object_name": "TIANMU-1 08",
        "meta_object_id": "2023-101B",
        "meta_epoch": "2025-12-03T12:35:34.271808",
        "meta_mean_motion": 15.27841634,
        "meta_eccentricity": 0.000747,
        "meta_inclination": 97.2884,
        "meta_ra_of_asc_node": 27.3789,
        "meta_arg_of_pericenter": 109.6327,
        "meta_mean_anomaly": 250.5719,
        "meta_ephemeris_type": 0,
        "meta_classification_type": "U",
        "meta_norad_cat_id": 57400,
        "meta_element_set_no": 999,
        "meta_rev_at_epoch": 13174,
        "meta_bstar": 0.00037303,
        "meta_mean_motion_dot": 0.0001008,
        "meta_mean_motion_ddot": 0,
        "tle_line1": "1 57400U 23101B   25337.52470222  .00010080  00000+0  37303-3 0  9994",
        "tle_line2": "2 57400  97.2884  27.3789 0007470 109.6327 250.5719 15.27841634131744"
      },
      "geometry": {
        "type": "Point",
        "coordinates": [
          -149.16377072326796,
          22.541902646618315
        ]
      }
    },
    {
      "type": "Feature",
      "properties": {
        "norad_id": 57401,
        "name": "TIANMU-1 09",
        "group": "weather",
        "lat": -48.52729122733439,
        "lon": -161.01163798212664,
        "alt_km": 491.50905829901603,
        "timestamp": "2025-12-03T22:42:32.302678+00:00",
        "meta_object_name": "TIANMU-1 09",
        "meta_object_id": "2023-101C",
        "meta_epoch": "2025-12-03T12:16:45.881760",
        "meta_mean_motion": 15.27863659,
        "meta_eccentricity": 0.0006756,
        "meta_inclination": 97.2841,
        "meta_ra_of_asc_node": 26.8845,
        "meta_arg_of_pericenter": 108.9513,
        "meta_mean_anomaly": 251.2459,
        "meta_ephemeris_type": 0,
        "meta_classification_type": "U",
        "meta_norad_cat_id": 57401,
        "meta_element_set_no": 999,
        "meta_rev_at_epoch": 13174,
        "meta_bstar": 0.0003922,
        "meta_mean_motion_dot": 0.00010608,
        "meta_mean_motion_ddot": 0,
        "tle_line1": "1 57401U 23101C   25337.51164215  .00010608  00000+0  39220-3 0  9992",
        "tle_line2": "2 57401  97.2841  26.8845 0006756 108.9513 251.2459 15.27863659131740"
      },
      "geometry": {
        "type": "Point",
        "coordinates": [
          -161.01163798212664,
          -48.52729122733439
        ]
      }
    },
    {
      "type": "Feature",
      "properties": {
        "norad_id": 57402,
        "name": "TIANMU-1 10",
        "group": "weather",
        "lat": 40.53723589604793,
        "lon": 21.862430329581827,
        "alt_km": 476.86025261487157,
        "timestamp": "2025-12-03T22:42:32.302687+00:00",
        "meta_object_name": "TIANMU-1 10",
        "meta_object_id": "2023-101D",
        "meta_epoch": "2025-12-03T11:31:39.046656",
        "meta_mean_motion": 15.27853418,
        "meta_eccentricity": 0.0008492,
        "meta_inclination": 97.2921,
        "meta_ra_of_asc_node": 27.6938,
        "meta_arg_of_pericenter": 110.2317,
        "meta_mean_anomaly": 249.9837,
        "meta_ephemeris_type": 0,
        "meta_classification_type": "U",
        "meta_norad_cat_id": 57402,
        "meta_element_set_no": 999,
        "meta_rev_at_epoch": 13173,
        "meta_bstar": 0.00039551,
        "meta_mean_motion_dot": 0.00010699,
        "meta_mean_motion_ddot": 0,
        "tle_line1": "1 57402U 23101D   25337.48031304  .00010699  00000+0  39551-3 0  9998",
        "tle_line2": "2 57402  97.2921  27.6938 0008492 110.2317 249.9837 15.27853418131734"
      },
      "geometry": {
        "type": "Point",
        "coordinates": [
          21.862430329581827,
          40.53723589604793
        ]
      }
    },
    {
      "type": "Feature",
      "properties": {
        "norad_id": 57490,
        "name": "FENGYUN 3F",
        "group": "weather",
        "lat": 62.17359070981728,
        "lon": -116.73621020689606,
        "alt_km": 819.2101886836435,
        "timestamp": "2025-12-03T22:42:32.302696+00:00",
        "meta_object_name": "FENGYUN 3F",
        "meta_object_id": "2023-111A",
        "meta_epoch": "2025-12-03T12:00:54.048384",
        "meta_mean_motion": 14.19889569,
        "meta_eccentricity": 6.93e-05,
        "meta_inclination": 98.7095,
        "meta_ra_of_asc_node": 45.9427,
        "meta_arg_of_pericenter": 86.4933,
        "meta_mean_anomaly": 273.6323,
        "meta_ephemeris_type": 0,
        "meta_classification_type": "U",
        "meta_norad_cat_id": 57490,
        "meta_element_set_no": 999,
        "meta_rev_at_epoch": 12109,
        "meta_bstar": 9.4096e-05,
        "meta_mean_motion_dot": 1.56e-06,
        "meta_mean_motion_ddot": 0,
        "tle_line1": "1 57490U 23111A   25337.50062556  .00000156  00000+0  94096-4 0  9995",
        "tle_line2": "2 57490  98.7095  45.9427 0000693  86.4933 273.6323 14.19889569121096"
      },
      "geometry": {
        "type": "Point",
        "coordinates": [
          -116.73621020689606,
          62.17359070981728
        ]
      }
    },
    {
      "type": "Feature",
      "properties": {
        "norad_id": 58584,
        "name": "ARKTIKA-M 2",
        "group": "weather",
        "lat": 50.22834231991019,
        "lon": -146.78687077690054,
        "alt_km": 28928.737213239187,
        "timestamp": "2025-12-03T22:42:32.302707+00:00",
        "meta_object_name": "ARKTIKA-M 2",
        "meta_object_id": "2023-198A",
        "meta_epoch": "2025-12-03T08:34:19.284960",
        "meta_mean_motion": 2.00605176,
        "meta_eccentricity": 0.6864251,
        "meta_inclination": 63.2223,
        "meta_ra_of_asc_node": 175.9121,
        "meta_arg_of_pericenter": 268.1397,
        "meta_mean_anomaly": 18.842,
        "meta_ephemeris_type": 0,
        "meta_classification_type": "U",
        "meta_norad_cat_id": 58584,
        "meta_element_set_no": 999,
        "meta_rev_at_epoch": 1439,
        "meta_bstar": 0,
        "meta_mean_motion_dot": 2.24e-06,
        "meta_mean_motion_ddot": 0,
        "tle_line1": "1 58584U 23198A   25337.35716765  .00000224  00000+0  00000+0 0  9999",
        "tle_line2": "2 58584  63.2223 175.9121 6864251 268.1397  18.8420  2.00605176 14391"
      },
      "geometry": {
        "type": "Point",
        "coordinates": [
          -146.78687077690054,
          50.22834231991019
        ]
      }
    },
    {
      "type": "Feature",
      "properties": {
        "norad_id": 58645,
        "name": "TIANMU-1 11",
        "group": "weather",
        "lat": -30.372940590814867,
        "lon": 2.0707536229815817,
        "alt_km": 492.734687613146,
        "timestamp": "2025-12-03T22:42:32.302717+00:00",
        "meta_object_name": "TIANMU-1 11",
        "meta_object_id": "2023-205A",
        "meta_epoch": "2025-12-03T13:23:26.397888",
        "meta_mean_motion": 15.24418783,
        "meta_eccentricity": 0.0008819,
        "meta_inclination": 97.3611,
        "meta_ra_of_asc_node": 357.3442,
        "meta_arg_of_pericenter": 346.362,
        "meta_mean_anomaly": 13.7378,
        "meta_ephemeris_type": 0,
        "meta_classification_type": "U",
        "meta_norad_cat_id": 58645,
        "meta_element_set_no": 999,
        "meta_rev_at_epoch": 10769,
        "meta_bstar": 0.00034616,
        "meta_mean_motion_dot": 8.43e-05,
        "meta_mean_motion_ddot": 0,
        "tle_line1": "1 58645U 23205A   25337.55794442  .00008430  00000+0  34616-3 0  9997",
        "tle_line2": "2 58645  97.3611 357.3442 0008819 346.3620  13.7378 15.24418783107690"
      },
      "geometry": {
        "type": "Point",
        "coordinates": [
          2.0707536229815817,
          -30.372940590814867
        ]
      }
    },
    {
      "type": "Feature",
      "properties": {
        "norad_id": 58646,
        "name": "TIANMU-1 12",
        "group": "weather",
        "lat": -5.014435468759175,
        "lon": 176.88407734897729,
        "alt_km": 500.2697340664281,
        "timestamp": "2025-12-03T22:42:32.302727+00:00",
        "meta_object_name": "TIANMU-1 12",
        "meta_object_id": "2023-205B",
        "meta_epoch": "2025-12-03T12:26:49.379712",
        "meta_mean_motion": 15.2433203,
        "meta_eccentricity": 0.0006631,
        "meta_inclination": 97.3599,
        "meta_ra_of_asc_node": 357.114,
        "meta_arg_of_pericenter": 332.3601,
        "meta_mean_anomaly": 27.7283,
        "meta_ephemeris_type": 0,
        "meta_classification_type": "U",
        "meta_norad_cat_id": 58646,
        "meta_element_set_no": 999,
        "meta_rev_at_epoch": 10767,
        "meta_bstar": 0.00036561,
        "meta_mean_motion_dot": 8.881e-05,
        "meta_mean_motion_ddot": 0,
        "tle_line1": "1 58646U 23205B   25337.51862708  .00008881  00000+0  36561-3 0  9996",
        "tle_line2": "2 58646  97.3599 357.1140 0006631 332.3601  27.7283 15.24332030107671"
      },
      "geometry": {
        "type": "Point",
        "coordinates": [
          176.88407734897729,
          -5.014435468759175
        ]
      }
    }
  ]
}